RSP-03                  
1 65732U 98067XL  26040.41031061  .00964810  49211-3  14580-2 0  9999
2 65732  51.6147 192.1743 0007707 306.0065  54.0231 16.03979997 22444
YOTSUBA-KULOVER         
1 65941U 98067XN  26039.71294740  .00117812  00000+0  91543-3 0  9993
2 65941  51.6242 206.4026 0004047 255.5086 104.5463 15.70895294 18937
BOTAN                   
1 65942U 98067XP  26039.46178240  .00342562  00000+0  14175-2 0  9999
2 65942  51.6179 203.9271 0006222 277.7015  82.3282 15.84336701 18947
E-KAGAKU-1              
1 65943U 98067XQ  26039.71374767  .00113215  00000+0  88438-3 0  9995
2 65943  51.6277 206.4201 0003478 270.0680  89.9919 15.70789022 18934
HRC MONOBLOCK CAMERA    
1 66052U 98067XR  26040.46194505  .00052152  00000+0  65225-3 0  9992
2 66052  51.6275 207.6676 0001197 355.8810   4.2173 15.59287536 17982
HTV-X1                  
1 66174U 25241A   26040.18079695  .00010658  00000+0  20455-3 0  9993
2 66174  51.6312 213.2864 0011096  78.9890 281.2346 15.48499027   519
SZ-21 MODULE            
1 66515U 25246C   26040.27417321  .00037161  00000+0  34919-3 0  9997
2 66515  41.4766  17.9863 0002766 286.9466  73.1072 15.66393879 13617
SHENZHOU-22             
1 66645U 25272A   26040.29149499  .00017698  00000+0  22143-3 0  9999
2 66645  41.4685  20.7882 0004746  37.5365 322.5804 15.59379177267647
SOYUZ-MS 28             
1 66664U 25275A   26040.43894132  .00009896  00000+0  19052-3 0  9996
2 66664  51.6310 212.0104 0011091  80.0760 280.1480 15.48502829551951
DUPLEX                  
1 66906U 98067XS  26040.44148778  .00037351  00000+0  56645-3 0  9999
2 66906  51.6290 210.5309 0001456  74.7782 285.3369 15.54243067 10737
ISS OBJECT XT           
1 66907U 98067XT  26040.48993232  .00120355  00000+0  13481-2 0  9994
2 66907  51.6263 208.6025 0001786 240.3700 119.7116 15.61799976 10764
ISS OBJECT XU           
1 66908U 98067XU  26040.48934183  .00117048  00000+0  13108-2 0  9996
2 66908  51.6260 208.5960 0001626 244.8883 115.1942 15.61818585 10768
