CCSDS_OMM_VERS = 2.0
CREATION_DATE  = 
ORIGINATOR     = 

OBJECT_NAME    = RSP-03
OBJECT_ID      = 1998-067XL
CENTER_NAME    = EARTH
REF_FRAME      = TEME
TIME_SYSTEM    = UTC
MEAN_ELEMENT_THEORY = SGP/SGP4

EPOCH          = 2026-02-09T09:50:50.836704
MEAN_MOTION    = 16.03979997
ECCENTRICITY   = .0007707
INCLINATION    = 51.6147
RA_OF_ASC_NODE = 192.1743
ARG_OF_PERICENTER = 306.0065
MEAN_ANOMALY   = 54.0231

EPHEMERIS_TYPE = 0
CLASSIFICATION_TYPE = U
NORAD_CAT_ID   = 65732
ELEMENT_SET_NO = 999
REV_AT_EPOCH   = 2244
BSTAR          = .1458E-2
MEAN_MOTION_DOT = .96481E-2
MEAN_MOTION_DDOT = .49211E-3

CCSDS_OMM_VERS = 2.0
CREATION_DATE  = 
ORIGINATOR     = 

OBJECT_NAME    = YOTSUBA-KULOVER
OBJECT_ID      = 1998-067XN
CENTER_NAME    = EARTH
REF_FRAME      = TEME
TIME_SYSTEM    = UTC
MEAN_ELEMENT_THEORY = SGP/SGP4

EPOCH          = 2026-02-08T17:06:38.655360
MEAN_MOTION    = 15.70895294
ECCENTRICITY   = .0004047
INCLINATION    = 51.6242
RA_OF_ASC_NODE = 206.4026
ARG_OF_PERICENTER = 255.5086
MEAN_ANOMALY   = 104.5463

EPHEMERIS_TYPE = 0
CLASSIFICATION_TYPE = U
NORAD_CAT_ID   = 65941
ELEMENT_SET_NO = 999
REV_AT_EPOCH   = 1893
BSTAR          = .91542795E-3
MEAN_MOTION_DOT = .117812E-2
MEAN_MOTION_DDOT = 0

CCSDS_OMM_VERS = 2.0
CREATION_DATE  = 
ORIGINATOR     = 

OBJECT_NAME    = BOTAN
OBJECT_ID      = 1998-067XP
CENTER_NAME    = EARTH
REF_FRAME      = TEME
TIME_SYSTEM    = UTC
MEAN_ELEMENT_THEORY = SGP/SGP4

EPOCH          = 2026-02-08T11:04:57.999360
MEAN_MOTION    = 15.84336701
ECCENTRICITY   = .00062229
INCLINATION    = 51.6179
RA_OF_ASC_NODE = 203.9271
ARG_OF_PERICENTER = 277.7015
MEAN_ANOMALY   = 82.3282

EPHEMERIS_TYPE = 0
CLASSIFICATION_TYPE = U
NORAD_CAT_ID   = 65942
ELEMENT_SET_NO = 999
REV_AT_EPOCH   = 1894
BSTAR          = .14174891E-2
MEAN_MOTION_DOT = .342562E-2
MEAN_MOTION_DDOT = 0

CCSDS_OMM_VERS = 2.0
CREATION_DATE  = 
ORIGINATOR     = 

OBJECT_NAME    = E-KAGAKU-1
OBJECT_ID      = 1998-067XQ
CENTER_NAME    = EARTH
REF_FRAME      = TEME
TIME_SYSTEM    = UTC
MEAN_ELEMENT_THEORY = SGP/SGP4

EPOCH          = 2026-02-08T17:07:47.798688
MEAN_MOTION    = 15.70789022
ECCENTRICITY   = .00034781
INCLINATION    = 51.6277
RA_OF_ASC_NODE = 206.4201
ARG_OF_PERICENTER = 270.0680
MEAN_ANOMALY   = 89.9919

EPHEMERIS_TYPE = 0
CLASSIFICATION_TYPE = U
NORAD_CAT_ID   = 65943
ELEMENT_SET_NO = 999
REV_AT_EPOCH   = 1893
BSTAR          = .88438305E-3
MEAN_MOTION_DOT = .113215E-2
MEAN_MOTION_DDOT = 0

CCSDS_OMM_VERS = 2.0
CREATION_DATE  = 
ORIGINATOR     = 

OBJECT_NAME    = HRC MONOBLOCK CAMERA
OBJECT_ID      = 1998-067XR
CENTER_NAME    = EARTH
REF_FRAME      = TEME
TIME_SYSTEM    = UTC
MEAN_ELEMENT_THEORY = SGP/SGP4

EPOCH          = 2026-02-09T11:05:12.052320
MEAN_MOTION    = 15.59287536
ECCENTRICITY   = .0001197
INCLINATION    = 51.6275
RA_OF_ASC_NODE = 207.6676
ARG_OF_PERICENTER = 355.8810
MEAN_ANOMALY   = 4.2173

EPHEMERIS_TYPE = 0
CLASSIFICATION_TYPE = U
NORAD_CAT_ID   = 66052
ELEMENT_SET_NO = 999
REV_AT_EPOCH   = 1798
BSTAR          = .65225E-3
MEAN_MOTION_DOT = .52152E-3
MEAN_MOTION_DDOT = 0

CCSDS_OMM_VERS = 2.0
CREATION_DATE  = 
ORIGINATOR     = 

OBJECT_NAME    = HTV-X1
OBJECT_ID      = 2025-241A
CENTER_NAME    = EARTH
REF_FRAME      = TEME
TIME_SYSTEM    = UTC
MEAN_ELEMENT_THEORY = SGP/SGP4

EPOCH          = 2026-02-09T04:20:20.856480
MEAN_MOTION    = 15.48499027
ECCENTRICITY   = .00110961
INCLINATION    = 51.6312
RA_OF_ASC_NODE = 213.2864
ARG_OF_PERICENTER = 78.9890
MEAN_ANOMALY   = 281.2346

EPHEMERIS_TYPE = 0
CLASSIFICATION_TYPE = U
NORAD_CAT_ID   = 66174
ELEMENT_SET_NO = 999
REV_AT_EPOCH   = 51
BSTAR          = .20454511E-3
MEAN_MOTION_DOT = .10658E-3
MEAN_MOTION_DDOT = 0

CCSDS_OMM_VERS = 2.0
CREATION_DATE  = 
ORIGINATOR     = 

OBJECT_NAME    = SZ-21 MODULE
OBJECT_ID      = 2025-246C
CENTER_NAME    = EARTH
REF_FRAME      = TEME
TIME_SYSTEM    = UTC
MEAN_ELEMENT_THEORY = SGP/SGP4

EPOCH          = 2026-02-09T06:34:48.565344
MEAN_MOTION    = 15.66393879
ECCENTRICITY   = .0002766
INCLINATION    = 41.4766
RA_OF_ASC_NODE = 17.9863
ARG_OF_PERICENTER = 286.9466
MEAN_ANOMALY   = 73.1072

EPHEMERIS_TYPE = 0
CLASSIFICATION_TYPE = U
NORAD_CAT_ID   = 66515
ELEMENT_SET_NO = 999
REV_AT_EPOCH   = 1361
BSTAR          = .34919E-3
MEAN_MOTION_DOT = .37161E-3
MEAN_MOTION_DDOT = 0

CCSDS_OMM_VERS = 2.0
CREATION_DATE  = 
ORIGINATOR     = 

OBJECT_NAME    = SHENZHOU-22
OBJECT_ID      = 2025-272A
CENTER_NAME    = EARTH
REF_FRAME      = TEME
TIME_SYSTEM    = UTC
MEAN_ELEMENT_THEORY = SGP/SGP4

EPOCH          = 2026-02-09T06:59:45.167136
MEAN_MOTION    = 15.59379177
ECCENTRICITY   = .00047468
INCLINATION    = 41.4685
RA_OF_ASC_NODE = 20.7882
ARG_OF_PERICENTER = 37.5365
MEAN_ANOMALY   = 322.5804

EPHEMERIS_TYPE = 0
CLASSIFICATION_TYPE = U
NORAD_CAT_ID   = 66645
ELEMENT_SET_NO = 999
REV_AT_EPOCH   = 26764
BSTAR          = .22143477E-3
MEAN_MOTION_DOT = .17698E-3
MEAN_MOTION_DDOT = 0

CCSDS_OMM_VERS = 2.0
CREATION_DATE  = 
ORIGINATOR     = 

OBJECT_NAME    = SOYUZ-MS 28
OBJECT_ID      = 2025-275A
CENTER_NAME    = EARTH
REF_FRAME      = TEME
TIME_SYSTEM    = UTC
MEAN_ELEMENT_THEORY = SGP/SGP4

EPOCH          = 2026-02-09T10:32:04.530048
MEAN_MOTION    = 15.48502829
ECCENTRICITY   = .0011091
INCLINATION    = 51.6310
RA_OF_ASC_NODE = 212.0104
ARG_OF_PERICENTER = 80.0760
MEAN_ANOMALY   = 280.1480

EPHEMERIS_TYPE = 0
CLASSIFICATION_TYPE = U
NORAD_CAT_ID   = 66664
ELEMENT_SET_NO = 999
REV_AT_EPOCH   = 55195
BSTAR          = .19052E-3
MEAN_MOTION_DOT = .9896E-4
MEAN_MOTION_DDOT = 0

CCSDS_OMM_VERS = 2.0
CREATION_DATE  = 
ORIGINATOR     = 

OBJECT_NAME    = DUPLEX
OBJECT_ID      = 1998-067XS
CENTER_NAME    = EARTH
REF_FRAME      = TEME
TIME_SYSTEM    = UTC
MEAN_ELEMENT_THEORY = SGP/SGP4

EPOCH          = 2026-02-09T10:35:44.544192
MEAN_MOTION    = 15.54243067
ECCENTRICITY   = .0001456
INCLINATION    = 51.6290
RA_OF_ASC_NODE = 210.5309
ARG_OF_PERICENTER = 74.7782
MEAN_ANOMALY   = 285.3369

EPHEMERIS_TYPE = 0
CLASSIFICATION_TYPE = U
NORAD_CAT_ID   = 66906
ELEMENT_SET_NO = 999
REV_AT_EPOCH   = 1073
BSTAR          = .56645E-3
MEAN_MOTION_DOT = .37351E-3
MEAN_MOTION_DDOT = 0

CCSDS_OMM_VERS = 2.0
CREATION_DATE  = 
ORIGINATOR     = 

OBJECT_NAME    = ISS OBJECT XT
OBJECT_ID      = 1998-067XT
CENTER_NAME    = EARTH
REF_FRAME      = TEME
TIME_SYSTEM    = UTC
MEAN_ELEMENT_THEORY = SGP/SGP4

EPOCH          = 2026-02-09T11:45:30.152448
MEAN_MOTION    = 15.61799976
ECCENTRICITY   = .0001786
INCLINATION    = 51.6263
RA_OF_ASC_NODE = 208.6025
ARG_OF_PERICENTER = 240.3700
MEAN_ANOMALY   = 119.7116

EPHEMERIS_TYPE = 0
CLASSIFICATION_TYPE = U
NORAD_CAT_ID   = 66907
ELEMENT_SET_NO = 999
REV_AT_EPOCH   = 1076
BSTAR          = .13481E-2
MEAN_MOTION_DOT = .120355E-2
MEAN_MOTION_DDOT = 0

CCSDS_OMM_VERS = 2.0
CREATION_DATE  = 
ORIGINATOR     = 

OBJECT_NAME    = ISS OBJECT XU
OBJECT_ID      = 1998-067XU
CENTER_NAME    = EARTH
REF_FRAME      = TEME
TIME_SYSTEM    = UTC
MEAN_ELEMENT_THEORY = SGP/SGP4

EPOCH          = 2026-02-09T11:44:39.134112
MEAN_MOTION    = 15.61818585
ECCENTRICITY   = .0001626
INCLINATION    = 51.6260
RA_OF_ASC_NODE = 208.5960
ARG_OF_PERICENTER = 244.8883
MEAN_ANOMALY   = 115.1942

EPHEMERIS_TYPE = 0
CLASSIFICATION_TYPE = U
NORAD_CAT_ID   = 66908
ELEMENT_SET_NO = 999
REV_AT_EPOCH   = 1076
BSTAR          = .13108E-2
MEAN_MOTION_DOT = .117048E-2
MEAN_MOTION_DDOT = 0

